{"type": "FeatureCollection", "features": [ {"type": "Feature", "properties": {"norad_id": 36061, "name": "COSMOS 2251 DEB", "group": "cosmos-2251-debris", "lat": -21.881249423080586, "lon": 8.093799892516582, "alt_km": 800.621551367366, "timestamp": "2025-12-04T13:52:00.838888+00:00", "meta": {"OBJECT_NAME": "COSMOS 2251 DEB", "OBJECT_ID": "1993-036AXY", "EPOCH": "2025-12-03T19:33:06.948864", "MEAN_MOTION": 14.33686991, "ECCENTRICITY": 0.0036926, "INCLINATION": 74.0246, "RA_OF_ASC_NODE": 16.0964, "ARG_OF_PERICENTER": 106.9115, "MEAN_ANOMALY": 253.609, "EPHEMERIS_TYPE": 0, "CLASSIFICATION_TYPE": "U", "NORAD_CAT_ID": 36061, "ELEMENT_SET_NO": 999, "REV_AT_EPOCH": 64976, "BSTAR": 0.00048994, "MEAN_MOTION_DOT": 1.344e-05, "MEAN_MOTION_DDOT": 0}, "tle": {"line1": "1 36061U 93036AXY 25337.81466376  .00001344  00000+0  48994-3 0  9996", "line2": "2 36061  74.0246  16.0964 0036926 106.9115 253.6090 14.33686991649763"}}, "geometry": {"type": "Point", "coordinates": [8.093799892516582, -21.881249423080586]}}, {"type": "Feature", "properties": {"norad_id": 36073, "name": "COSMOS 2251 DEB", "group": "cosmos-2251-debris", "lat": 35.6939790703756, "lon": -10.606761407504115, "alt_km": 755.9974620134954, "timestamp": "2025-12-04T13:52:00.838898+00:00", "meta": {"OBJECT_NAME": "COSMOS 2251 DEB", "OBJECT_ID": "1993-036AYL", "EPOCH": "2025-12-02T18:11:25.029312", "MEAN_MOTION": 14.34931351, "ECCENTRICITY": 0.00234518, "INCLINATION": 74.0318, "RA_OF_ASC_NODE": 340.8572, "ARG_OF_PERICENTER": 51.9571, "MEAN_ANOMALY": 308.3693, "EPHEMERIS_TYPE": 0, "CLASSIFICATION_TYPE": "U", "NORAD_CAT_ID": 36073, "ELEMENT_SET_NO": 999, "REV_AT_EPOCH": 70064, "BSTAR": 0.00029028111, "MEAN_MOTION_DOT": 8.02e-06, "MEAN_MOTION_DDOT": 0}, "tle": {"line1": "1 36073U 93036AYL 25336.75792858  .00000802  00000+0  29028-3 0  9993", "line2": "2 36073  74.0318 340.8572 0023451  51.9571 308.3693 14.34931351700649"}}, "geometry": {"type": "Point", "coordinates": [-10.606761407504115, 35.6939790703756]}}, {"type": "Feature", "properties": {"norad_id": 36074, "name": "COSMOS 2251 DEB", "group": "cosmos-2251-debris", "lat": -72.41601866793239, "lon": -69.24936709789026, "alt_km": 783.3212011545502, "timestamp": "2025-12-04T13:52:00.838908+00:00", "meta": {"OBJECT_NAME": "COSMOS 2251 DEB", "OBJECT_ID": "1993-036AYM", "EPOCH": "2025-12-03T11:38:27.519072", "MEAN_MOTION": 14.43635924, "ECCENTRICITY": 0.00422946, "INCLINATION": 73.9916, "RA_OF_ASC_NODE": 357.7317, "ARG_OF_PERICENTER": 92.4077, "MEAN_ANOMALY": 268.1923, "EPHEMERIS_TYPE": 0, "CLASSIFICATION_TYPE": "U", "NORAD_CAT_ID": 36074, "ELEMENT_SET_NO": 999, "REV_AT_EPOCH": 85776, "BSTAR": 0.0012216694, "MEAN_MOTION_DOT": 4.165e-05, "MEAN_MOTION_DDOT": 0}, "tle": {"line1": "1 36074U 93036AYM 25337.48504073  .00004165  00000+0  12217-2 0  9992", "line2": "2 36074  73.9916 357.7317 0042294  92.4077 268.1923 14.43635924857765"}}, "geometry": {"type": "Point", "coordinates": [-69.24936709789026, -72.41601866793239]}}, {"type": "Feature", "properties": {"norad_id": 36366, "name": "COSMOS 2251 DEB", "group": "cosmos-2251-debris", "lat": 22.46519781889904, "lon": 101.17824419275995, "alt_km": 841.9890468073427, "timestamp": "2025-12-04T13:52:00.838918+00:00", "meta": {"OBJECT_NAME": "COSMOS 2251 DEB", "OBJECT_ID": "1993-036AYT", "EPOCH": "2025-12-02T05:51:07.218720", "MEAN_MOTION": 14.33192884, "ECCENTRICITY": 0.0091167, "INCLINATION": 74.0653, "RA_OF_ASC_NODE": 292.2194, "ARG_OF_PERICENTER": 322.5756, "MEAN_ANOMALY": 36.9067, "EPHEMERIS_TYPE": 0, "CLASSIFICATION_TYPE": "U", "NORAD_CAT_ID": 36366, "ELEMENT_SET_NO": 999, "REV_AT_EPOCH": 86138, "BSTAR": 0.0027816, "MEAN_MOTION_DOT": 7.987e-05, "MEAN_MOTION_DDOT": 0}, "tle": {"line1": "1 36366U 93036AYT 25336.24383355  .00007987  00000+0  27816-2 0  9993", "line2": "2 36366  74.0653 292.2194 0091167 322.5756  36.9067 14.33192884861384"}}, "geometry": {"type": "Point", "coordinates": [101.17824419275995, 22.46519781889904]}}, {"type": "Feature", "properties": {"norad_id": 36367, "name": "COSMOS 2251 DEB", "group": "cosmos-2251-debris", "lat": 43.480859864393636, "lon": 49.50713750886296, "alt_km": 1129.2549578831822, "timestamp": "2025-12-04T13:52:00.838928+00:00", "meta": {"OBJECT_NAME": "COSMOS 2251 DEB", "OBJECT_ID": "1993-036AYU", "EPOCH": "2025-12-01T12:28:20.175744", "MEAN_MOTION": 13.86234419, "ECCENTRICITY": 0.02628434, "INCLINATION": 74.101, "RA_OF_ASC_NODE": 250.3439, "ARG_OF_PERICENTER": 325.6692, "MEAN_ANOMALY": 32.7682, "EPHEMERIS_TYPE": 0, "CLASSIFICATION_TYPE": "U", "NORAD_CAT_ID": 36367, "ELEMENT_SET_NO": 999, "REV_AT_EPOCH": 57374, "BSTAR": 0.0014810929, "MEAN_MOTION_DOT": 2.22e-05, "MEAN_MOTION_DDOT": 0}, "tle": {"line1": "1 36367U 93036AYU 25335.51967796  .00002220  00000+0  14811-2 0  9996", "line2": "2 36367  74.1010 250.3439 0262843 325.6692  32.7682 13.86234419573749"}}, "geometry": {"type": "Point", "coordinates": [49.50713750886296, 43.480859864393636]}}, {"type": "Feature", "properties": {"norad_id": 36369, "name": "COSMOS 2251 DEB", "group": "cosmos-2251-debris", "lat": -68.94801353096868, "lon": -45.282726202688615, "alt_km": 657.0835368673661, "timestamp": "2025-12-04T13:52:00.838952+00:00", "meta": {"OBJECT_NAME": "COSMOS 2251 DEB", "OBJECT_ID": "1993-036AYW", "EPOCH": "2025-12-03T00:51:19.677888", "MEAN_MOTION": 14.73251105, "ECCENTRICITY": 0.00123913, "INCLINATION": 74.0302, "RA_OF_ASC_NODE": 89.6499, "ARG_OF_PERICENTER": 171.9331, "MEAN_ANOMALY": 188.2043, "EPHEMERIS_TYPE": 0, "CLASSIFICATION_TYPE": "U", "NORAD_CAT_ID": 36369, "ELEMENT_SET_NO": 999, "REV_AT_EPOCH": 85779, "BSTAR": 0.0024127468, "MEAN_MOTION_DOT": 0.00015612, "MEAN_MOTION_DDOT": 0}, "tle": {"line1": "1 36369U 93036AYW 25337.03564442  .00015612  00000+0  24127-2 0  9998", "line2": "2 36369  74.0302  89.6499 0012391 171.9331 188.2043 14.73251105857792"}}, "geometry": {"type": "Point", "coordinates": [-45.282726202688615, -68.94801353096868]}}, {"type": "Feature", "properties": {"norad_id": 36371, "name": "COSMOS 2251 DEB", "group": "cosmos-2251-debris", "lat": -67.17940945397797, "lon": 40.342289750008106, "alt_km": 660.8705863869354, "timestamp": "2025-12-04T13:52:00.838964+00:00", "meta": {"OBJECT_NAME": "COSMOS 2251 DEB", "OBJECT_ID": "1993-036AYY", "EPOCH": "2025-12-03T20:23:16.576224", "MEAN_MOTION": 14.70306964, "ECCENTRICITY": 0.0010635, "INCLINATION": 74.0119, "RA_OF_ASC_NODE": 178.8053, "ARG_OF_PERICENTER": 218.5129, "MEAN_ANOMALY": 141.5285, "EPHEMERIS_TYPE": 0, "CLASSIFICATION_TYPE": "U", "NORAD_CAT_ID": 36371, "ELEMENT_SET_NO": 999, "REV_AT_EPOCH": 71314, "BSTAR": 0.0033707, "MEAN_MOTION_DOT": 0.00020406, "MEAN_MOTION_DDOT": 0}, "tle": {"line1": "1 36371U 93036AYY 25337.84949741  .00020406  00000+0  33707-2 0  9990", "line2": "2 36371  74.0119 178.8053 0010635 218.5129 141.5285 14.70306964713141"}}, "geometry": {"type": "Point", "coordinates": [40.342289750008106, -67.17940945397797]}}, {"type": "Feature", "properties": {"norad_id": 36379, "name": "COSMOS 2251 DEB", "group": "cosmos-2251-debris", "lat": -14.163452630023773, "lon": -42.31772203482931, "alt_km": 785.4329031403477, "timestamp": "2025-12-04T13:52:00.838975+00:00", "meta": {"OBJECT_NAME": "COSMOS 2251 DEB", "OBJECT_ID": "1993-036AZG", "EPOCH": "2025-12-04T05:40:14.040768", "MEAN_MOTION": 14.36055986, "ECCENTRICITY": 0.00445121, "INCLINATION": 74.012, "RA_OF_ASC_NODE": 322.4591, "ARG_OF_PERICENTER": 93.9116, "MEAN_ANOMALY": 287.0912, "EPHEMERIS_TYPE": 0, "CLASSIFICATION_TYPE": "U", "NORAD_CAT_ID": 36379, "ELEMENT_SET_NO": 999, "REV_AT_EPOCH": 64706, "BSTAR": 0.00051817663, "MEAN_MOTION_DOT": 1.499e-05, "MEAN_MOTION_DDOT": 0}, "tle": {"line1": "1 36379U 93036AZG 25338.23627362  .00001499  00000+0  51818-3 0  9999", "line2": "2 36379  74.0120 322.4591 0044512  93.9116 287.0912 14.36055986647064"}}, "geometry": {"type": "Point", "coordinates": [-42.31772203482931, -14.163452630023773]}}, {"type": "Feature", "properties": {"norad_id": 36385, "name": "COSMOS 2251 DEB", "group": "cosmos-2251-debris", "lat": -49.387781943862, "lon": 150.90351770800558, "alt_km": 582.439855618727, "timestamp": "2025-12-04T13:52:00.838986+00:00", "meta": {"OBJECT_NAME": "COSMOS 2251 DEB", "OBJECT_ID": "1993-036AZN", "EPOCH": "2025-12-02T19:41:49.805376", "MEAN_MOTION": 14.72268382, "ECCENTRICITY": 0.01411536, "INCLINATION": 73.969, "RA_OF_ASC_NODE": 173.928, "ARG_OF_PERICENTER": 350.6385, "MEAN_ANOMALY": 9.2157, "EPHEMERIS_TYPE": 0, "CLASSIFICATION_TYPE": "U", "NORAD_CAT_ID": 36385, "ELEMENT_SET_NO": 999, "REV_AT_EPOCH": 84956, "BSTAR": 0.0016407111, "MEAN_MOTION_DOT": 0.00012116, "MEAN_MOTION_DDOT": 0}, "tle": {"line1": "1 36385U 93036AZN 25336.82071534  .00012116  00000+0  16407-2 0  9995", "line2": "2 36385  73.9690 173.9280 0141153 350.6385   9.2157 14.72268382849565"}}, "geometry": {"type": "Point", "coordinates": [150.90351770800558, -49.387781943862]}}, {"type": "Feature", "properties": {"norad_id": 36420, "name": "COSMOS 2251 DEB", "group": "cosmos-2251-debris", "lat": -20.150380902587635, "lon": 116.51461578713847, "alt_km": 786.2583334726405, "timestamp": "2025-12-04T13:52:00.838996+00:00", "meta": {"OBJECT_NAME": "COSMOS 2251 DEB", "OBJECT_ID": "1993-036AZT", "EPOCH": "2025-12-03T05:28:58.353024", "MEAN_MOTION": 14.3688527, "ECCENTRICITY": 0.0017673, "INCLINATION": 74.0372, "RA_OF_ASC_NODE": 292.9652, "ARG_OF_PERICENTER": 23.016, "MEAN_ANOMALY": 40.8577, "EPHEMERIS_TYPE": 0, "CLASSIFICATION_TYPE": "U", "NORAD_CAT_ID": 36420, "ELEMENT_SET_NO": 999, "REV_AT_EPOCH": 84900, "BSTAR": 0.00024398, "MEAN_MOTION_DOT": 6.97e-06, "MEAN_MOTION_DDOT": 0}, "tle": {"line1": "1 36420U 93036AZT 25337.22845316  .00000697  00000+0  24398-3 0  9997", "line2": "2 36420  74.0372 292.9652 0017673  23.0160  40.8577 14.36885270849007"}}, "geometry": {"type": "Point", "coordinates": [116.51461578713847, -20.150380902587635]}}]}